LANDSAT 9               
1 49260U 21088A   24001.75510015  .00000500  00000+0  12096-3 0  9996
2 49260  98.2091  74.0461 0001096  90.0763 270.0561 14.57124844120302
